NORAD_CAT_ID,OBJECT_NAME,OBJECT_TYPE,EPOCH,MEAN_MOTION,ECCENTRICITY,INCLINATION,RA_OF_ASC_NODE,ARG_OF_PERICENTER,MEAN_ANOMALY,BSTAR,MEAN_MOTION_DOT,MEAN_MOTION_DDOT,TLE_LINE0,TLE_LINE1,TLE_LINE2,SEMIMAJOR_AXIS,PERIOD,APOGEE,PERIGEE,DECAYED
53726.0,STARLINK-4697,PAYLOAD,2023-09-22 11:15:54,15.08821598,0.0001531,53.2198,330.7525,87.8891,272.2277,-2.061e-05,-6.16e-06,0.0,0 STARLINK-4697,1 53726U 22107AC  23265.46937609 -.00000616  00000-0 -20610-4 0  9995,2 53726  53.2198 330.7525 0001531  87.8891 272.2277 15.08821598 58660,6917.937,95.439,540.861,538.743,0.0
53726.0,STARLINK-4697,PAYLOAD,2023-09-22 23:58:58,15.08837202,0.0001306,53.2183,328.3722,77.7852,282.3286,0.00010406,1.368e-05,0.0,0 STARLINK-4697,1 53726U 22107AC  23265.99928709  .00001368  00000-0  10406-3 0  9998,2 53726  53.2183 328.3722 0001306  77.7852 282.3286 15.08837202 58280,6917.889,95.438,540.657,538.85,0.0
53726.0,STARLINK-4697,PAYLOAD,2023-09-23 11:06:39,15.08856083,0.0001412,53.2183,326.2916,83.2973,276.818,0.00028308,4.222e-05,0.0,0 STARLINK-4697,1 53726U 22107AC  23266.46295244  .00004222  00000-0  28308-3 0  9994,2 53726  53.2183 326.2916 0001412  83.2973 276.8180 15.08856083 58353,6917.831,95.437,540.673,538.719,0.0
53726.0,STARLINK-4697,PAYLOAD,2023-09-24 03:00:31,15.08842354,0.0001533,53.2187,323.3202,89.7483,270.3685,0.00020151,2.921e-05,0.0,0 STARLINK-4697,1 53726U 22107AC  23267.12536417  .00002921  00000-0  20151-3 0  9990,2 53726  53.2187 323.3202 0001533  89.7483 270.3685 15.08842354 58450,6917.873,95.437,540.799,538.678,0.0
53726.0,STARLINK-4697,PAYLOAD,2023-09-24 09:22:04,15.0883692,0.0001611,53.2196,322.13,99.503,260.6144,0.00015762,2.221e-05,0.0,0 STARLINK-4697,1 53726U 22107AC  23267.39032722  .00002221  00000-0  15762-3 0  9994,2 53726  53.2196 322.1300 0001611  99.5030 260.6144 15.08836920 58959,6917.89,95.438,540.869,538.64,0.0
53726.0,STARLINK-4697,PAYLOAD,2023-09-25 09:12:50,15.08850374,0.0001471,53.2184,317.6692,92.6804,267.4356,-1.8222e-06,-3.17e-06,0.0,0 STARLINK-4697,1 53726U 22107AC  23268.38392096 -.00000317  00000-0 -18222-5 0  9999,2 53726  53.2184 317.6692 0001471  92.6804 267.4356 15.08850374 58641,6917.849,95.437,540.731,538.696,0.0
53726.0,STARLINK-4697,PAYLOAD,2023-09-25 12:23:36,15.08858893,0.0001539,53.2183,317.0732,95.8435,264.2732,2.1704e-05,5.8e-07,0.0,0 STARLINK-4697,1 53726U 22107AC  23268.51639376  .00000058  00000-0  21704-4 0  9997,2 53726  53.2183 317.0732 0001539  95.8435 264.2732 15.08858893 59120,6917.823,95.436,540.752,538.623,0.0
53726.0,STARLINK-4697,PAYLOAD,2023-09-26 02:42:05,15.08841742,0.0001621,53.2193,314.3989,100.5927,259.5248,5.7788e-05,6.32e-06,0.0,0 STARLINK-4697,1 53726U 22107AC  23269.11256052  .00000632  00000-0  57788-4 0  9999,2 53726  53.2193 314.3989 0001621 100.5927 259.5248 15.08841742 58759,6917.875,95.437,540.861,538.619,0.0
53726.0,STARLINK-4697,PAYLOAD,2023-09-26 10:39:01,15.0884059,0.000166,53.218,312.9099,82.5915,277.5265,5.5427e-05,5.94e-06,0.0,0 STARLINK-4697,1 53726U 22107AC  23269.44376308  .00000594  00000-0  55427-4 0  9997,2 53726  53.2180 312.9099 0001660  82.5915 277.5265 15.08840590 59266,6917.879,95.438,540.892,538.595,0.0
53726.0,STARLINK-4697,PAYLOAD,2023-09-27 08:54:24,15.0884444,0.0001538,53.2178,308.745,94.234,265.8828,1.2082e-05,-9.6e-07,0.0,0 STARLINK-4697,1 53726U 22107AC  23270.37112128 -.00000096  00000-0  12082-4 0  9997,2 53726  53.2178 308.7450 0001538  94.2340 265.8828 15.08844440 58940,6917.867,95.437,540.796,538.668,0.0
53726.0,STARLINK-4697,PAYLOAD,2023-09-27 12:05:10,15.08847786,0.0001537,53.2175,308.1494,96.4024,263.7144,2.6972e-05,1.41e-06,0.0,0 STARLINK-4697,1 53726U 22107AC  23270.50359829  .00000141  00000-0  26972-4 0  9996,2 53726  53.2175 308.1494 0001537  96.4024 263.7144 15.08847786 59429,6917.857,95.437,540.785,538.658,0.0
53726.0,STARLINK-4697,PAYLOAD,2023-09-27 23:12:54,15.08828985,0.0001383,53.2177,306.0695,83.9292,276.1858,-9.5374e-06,-4.4e-06,0.0,0 STARLINK-4697,1 53726U 22107AC  23270.96729243 -.00000440  00000-0 -95374-5 0  9994,2 53726  53.2177 306.0695 0001383  83.9292 276.1858 15.08828985 59035,6917.914,95.438,540.736,538.822,0.0
53726.0,STARLINK-4697,PAYLOAD,2023-09-28 11:55:59,15.08833075,0.0001481,53.2165,303.6882,95.5523,264.5638,-1.5346e-05,-5.32e-06,0.0,0 STARLINK-4697,1 53726U 22107AC  23271.49721201 -.00000532  00000-0 -15346-4 0  9991,2 53726  53.2165 303.6882 0001481  95.5523 264.5638 15.08833075 59570,6917.902,95.438,540.791,538.742,0.0
53726.0,STARLINK-4697,PAYLOAD,2023-09-29 02:14:26,15.08837234,0.0001464,53.2176,301.0101,107.5157,252.5996,9.4633e-05,1.218e-05,0.0,0 STARLINK-4697,1 53726U 22107AC  23272.09336626  .00001218  00000-0  94633-4 0  9997,2 53726  53.2176 301.0101 0001464 107.5157 252.5996 15.08837234 59201,6917.889,95.438,540.767,538.741,0.0
53726.0,STARLINK-4697,PAYLOAD,2023-09-29 08:35:58,15.08853449,0.0001477,53.2167,299.8229,94.4566,265.6595,8.8443e-05,1.12e-05,0.0,0 STARLINK-4697,1 53726U 22107AC  23272.35831778  .00001120  00000-0  88443-4 0  9998,2 53726  53.2167 299.8229 0001477  94.4566 265.6595 15.08853449 59248,6917.839,95.437,540.726,538.683,0.0
53726.0,STARLINK-4697,PAYLOAD,2023-09-30 05:15:59,15.08842194,0.0001587,53.2166,295.9594,82.6714,277.4458,0.00018239,2.616e-05,0.0,0 STARLINK-4697,1 53726U 22107AC  23273.21944179  .00002616  00000-0  18239-3 0  9990,2 53726  53.2166 295.9594 0001587  82.6714 277.4458 15.08842194 59834,6917.874,95.437,540.837,538.641,0.0
53726.0,STARLINK-4697,PAYLOAD,2023-09-30 08:26:45,15.08846339,0.0001552,53.218,295.3662,93.4993,266.6176,0.00022081,3.229e-05,0.0,0 STARLINK-4697,1 53726U 22107AC  23273.35191832  .00003229  00000-0  22081-3 0  9996,2 53726  53.2180 295.3662 0001552  93.4993 266.6176 15.08846339 59394,6917.861,95.437,540.8,538.652,0.0
53726.0,STARLINK-4697,PAYLOAD,2023-09-30 17:59:05,15.0884446,0.0001304,53.2164,293.5812,74.6688,285.4449,0.00010761,1.425e-05,0.0,0 STARLINK-4697,1 53726U 22107AC  23273.74936403  .00001425  00000-0  10761-3 0  9998,2 53726  53.2164 293.5812 0001304  74.6688 285.4449 15.08844460 59452,6917.867,95.437,540.634,538.83,0.0
53726.0,STARLINK-4697,PAYLOAD,2023-10-01 08:17:33,15.08842748,0.0001713,53.2185,290.9071,99.8709,260.2477,-1.8989e-06,-3.18e-06,0.0,0 STARLINK-4697,1 53726U 22107AC  23274.34552620 -.00000318  00000-0 -18989-5 0  9994,2 53726  53.2185 290.9071 0001713  99.8709 260.2477 15.08842748 60002,6917.872,95.437,540.922,538.552,0.0
53726.0,STARLINK-4697,PAYLOAD,2023-10-01 17:49:52,15.08836584,0.0001668,53.2174,289.1238,102.3296,257.7883,-4.77e-05,-1.047e-05,0.0,0 STARLINK-4697,1 53726U 22107AC  23274.74297108 -.00001047  00000-0 -47700-4 0  9997,2 53726  53.2174 289.1238 0001668 102.3296 257.7883 15.08836584 59602,6917.891,95.438,540.91,538.602,0.0
53726.0,STARLINK-4697,PAYLOAD,2023-10-02 08:08:21,15.08832487,0.000163,53.2181,286.4465,98.2836,261.8341,-0.00010875,-2.018e-05,0.0,0 STARLINK-4697,1 53726U 22107AC  23275.33913814 -.00002018  00000-0 -10875-3 0  9993,2 53726  53.2181 286.4465 0001630  98.2836 261.8341 15.08832487 59696,6917.903,95.438,540.896,538.641,0.0
53726.0,STARLINK-4697,PAYLOAD,2023-10-02 17:40:39,15.08841061,0.0001676,53.2186,284.6619,96.4615,263.6568,-8.7904e-05,-1.687e-05,0.0,0 STARLINK-4697,1 53726U 22107AC  23275.73657307 -.00001687  00000-0 -87904-4 0  9998,2 53726  53.2186 284.6619 0001676  96.4615 263.6568 15.08841061 59753,6917.877,95.437,540.902,538.583,0.0
53726.0,STARLINK-4697,PAYLOAD,2023-10-03 04:48:22,15.08828514,0.0001736,53.2178,282.5794,99.1193,260.9996,6.2884e-05,7.13e-06,0.0,0 STARLINK-4697,1 53726U 22107AC  23276.20026201  .00000713  00000-0  62884-4 0  9991,2 53726  53.2178 282.5794 0001736  99.1193 260.9996 15.08828514 59824,6917.915,95.438,540.981,538.58,0.0
53726.0,STARLINK-4697,PAYLOAD,2023-10-03 07:59:09,15.08828645,0.0001571,53.2174,281.9847,97.6466,262.4705,3.3993e-05,2.53e-06,0.0,0 STARLINK-4697,1 53726U 22107AC  23276.33274389  .00000253  00000-0  33993-4 0  9995,2 53726  53.2174 281.9847 0001571  97.6466 262.4705 15.08828645 60300,6917.915,95.438,540.867,538.693,0.0
53726.0,STARLINK-4697,PAYLOAD,2023-10-04 09:25:18,15.08853162,0.000154,53.2165,277.2233,87.5693,272.5476,0.00036529,5.532e-05,0.0,0 STARLINK-4697,1 53726U 22107AC  23277.39257299  .00005532  00000-0  36529-3 0  9995,2 53726  53.2165 277.2233 0001540  87.5693 272.5476 15.08853162 60009,6917.84,95.437,540.771,538.64,0.0
53726.0,STARLINK-4697,PAYLOAD,2023-10-04 17:22:14,15.08844996,0.0001609,53.2164,275.736,95.1101,265.0075,0.00018494,2.657e-05,0.0,0 STARLINK-4697,1 53726U 22107AC  23277.72377638  .00002657  00000-0  18494-3 0  9998,2 53726  53.2164 275.7360 0001609  95.1101 265.0075 15.08844996 60059,6917.865,95.437,540.843,538.617,0.0
53726.0,STARLINK-4697,PAYLOAD,2023-10-05 09:16:05,15.08852339,0.0001649,53.216,272.763,97.2299,262.8881,0.00031512,4.732e-05,0.0,0 STARLINK-4697,1 53726U 22107AC  23278.38617287  .00004732  00000-0  31512-3 0  9990,2 53726  53.2160 272.7630 0001649  97.2299 262.8881 15.08852339 60619,6917.843,95.437,540.848,538.567,0.0
53726.0,STARLINK-4697,PAYLOAD,2023-10-05 17:13:00,15.08849253,0.0001564,53.2165,271.2768,94.0252,266.0919,0.00015533,2.186e-05,0.0,0 STARLINK-4697,1 53726U 22107AC  23278.71737263  .00002186  00000-0  15533-3 0  9990,2 53726  53.2165 271.2768 0001564  94.0252 266.0919 15.08849253 60664,6917.852,95.437,540.799,538.635,0.0
53726.0,STARLINK-4697,PAYLOAD,2023-10-06 02:45:19,15.08850716,0.0001531,53.2164,269.4917,100.3269,259.7895,8.4456e-05,1.057e-05,0.0,0 STARLINK-4697,1 53726U 22107AC  23279.11480888  .00001057  00000-0  84456-4 0  9990,2 53726  53.2164 269.4917 0001531 100.3269 259.7895 15.08850716 60265,6917.848,95.437,540.772,538.654,0.0
53726.0,STARLINK-4697,PAYLOAD,2023-10-06 09:06:51,15.0885411,0.0001623,53.2166,268.3014,101.9942,258.1232,0.00018233,2.616e-05,0.0,0 STARLINK-4697,1 53726U 22107AC  23279.37976667  .00002616  00000-0  18233-3 0  9994,2 53726  53.2166 268.3014 0001623 101.9942 258.1232 15.08854110 60765,6917.837,95.437,540.825,538.579,0.0
